| satellites | [{"alt": 0, "country": "EU", "id": "31797", "inclination": 0, "line1": "1 31797U 07030A   26195.94010561  .00013863  00000+0  21903-3 0  9994", "line2": "2 31797  98.1066 303.9047 0004822 202.7703 157.3335 15.53621224 61243", "name": "SAR-LUPE 2", "type": "sar", "velocity": 0}, {"alt": 0, "country": "US", "id": "39088", "inclination": 0, "line1": "1 39088U 13009C   26195.90834900  .00000037  00000+0  27951-4 0  9994", "line2": "2 39088  98.4273  14.7076 0011568 160.7323 199.4302 14.35247541700552", "name": "SAPPHIRE", "type": "military", "velocity": 0}, {"alt": 0, "country": "US", "id": "65565", "inclination": 0, "line1": "1 65565U 25203A   26195.92915723  .00000018  00000+0  52071-5 0  9998", "line2": "2 65565  81.3043 345.0821 0007056 118.1689 242.0181 13.83887829 42532", "name": "PRAETORIAN SDA_602", "type": "military", "velocity": 0}, {"alt": 0, "country": "US", "id": "65566", "inclination": 0, "line1": "1 65566U 25203B   26195.88516127  .00000035  00000+0  20600-4 0  9990", "line2": "2 65566  81.3049 345.0448 0010739 115.5465 244.6804 13.83961998 42539", "name": "PRAETORIAN SDA_603", "type": "military", "velocity": 0}, {"alt": 0, "country": "US", "id": "65567", "inclination": 0, "line1": "1 65567U 25203C   26195.92252219  .00000016  00000+0  39922-5 0  9992", "line2": "2 65567  81.3066 345.4654 0006561 121.9656 238.2139 13.83049990 42510", "name": "PRAETORIAN SDA_604", "type": "military", "velocity": 0}, {"alt": 0, "country": "US", "id": "65568", "inclination": 0, "line1": "1 65568U 25203D   26195.88224065  .00000026  00000+0  12839-4 0  9994", "line2": "2 65568  81.3030 345.1435 0009308 113.9615 246.2517 13.83199973 42521", "name": "PRAETORIAN SDA_605", "type": "military", "velocity": 0}, {"alt": 0, "country": "US", "id": "65569", "inclination": 0, "line1": "1 65569U 25203E   26195.86741431  .00000023  00000+0  10338-4 0  9993", "line2": "2 65569  81.3067 345.3952 0007164 116.8562 243.3327 13.83200065 42510", "name": "PRAETORIAN SDA_606", "type": "military", "velocity": 0}, {"alt": 0, "country": "US", "id": "65570", "inclination": 0, "line1": "1 65570U 25203F   26195.85790491  .00000099  00000+0  78630-4 0  9996", "line2": "2 65570  81.3048 345.0242 0009936 115.3374 244.8813 13.83758530 42537", "name": "PRAETORIAN SDA_607", "type": "military", "velocity": 0}, {"alt": 0, "country": "US", "id": "65571", "inclination": 0, "line1": "1 65571U 25203G   26195.91274729  .00000026  00000+0  12840-4 0  9996", "line2": "2 65571  81.3019 345.1375 0007048 120.8680 239.3171 13.83819391 42525", "name": "PRAETORIAN SDA_608", "type": "military", "velocity": 0}, {"alt": 0, "country": "US", "id": "65572", "inclination": 0, "line1": "1 65572U 25203H   26195.90980594  .00000113  00000+0  90205-4 0  9998", "line2": "2 65572  81.3062 345.1183 0007966 115.5261 244.6720 13.84211008 42538", "name": "PRAETORIAN SDA_609", "type": "military", "velocity": 0}, {"alt": 0, "country": "US", "id": "65573", "inclination": 0, "line1": "1 65573U 25203J   26195.89458527  .00000059  00000+0  42775-4 0  9991", "line2": "2 65573  81.3021 345.1171 0007781 120.4935 239.6991 13.83528181 42524", "name": "PRAETORIAN SDA_610", "type": "military", "velocity": 0}, {"alt": 0, "country": "US", "id": "65574", "inclination": 0, "line1": "1 65574U 25203K   26195.90344882  .00000018  00000+0  55293-5 0  9997", "line2": "2 65574  81.3023 345.2908 0006589 124.2970 235.8811 13.83311986 42513", "name": "PRAETORIAN SDA_611", "type": "military", "velocity": 0}, {"alt": 0, "country": "US", "id": "65575", "inclination": 0, "line1": "1 65575U 25203L   26195.93071878  .00000106  00000+0  82724-4 0  9999", "line2": "2 65575  81.3041 344.7853 0010330 114.9274 245.2958 13.85039965 42556", "name": "PRAETORIAN SDA_612", "type": "military", "velocity": 0}, {"alt": 0, "country": "US", "id": "65576", "inclination": 0, "line1": "1 65576U 25203M   26195.92108517  .00000028  00000+0  15075-4 0  9998", "line2": "2 65576  81.3012 345.2938 0006767 115.4514 244.7343 13.82767634 42513", "name": "PRAETORIAN SDA_613", "type": "military", "velocity": 0}, {"alt": 0, "country": "US", "id": "65577", "inclination": 0, "line1": "1 65577U 25203N   26195.92513583  .00000016  00000+0  31292-5 0  9999", "line2": "2 65577  81.3027 344.8743 0008210 113.8300 246.3719 13.84778518 42553", "name": "PRAETORIAN SDA_614", "type": "military", "velocity": 0}, {"alt": 0, "country": "US", "id": "65578", "inclination": 0, "line1": "1 65578U 25203P   26195.90884803  .00000089  00000+0  68386-4 0  9997", "line2": "2 65578  81.3039 344.8713 0010207 114.5299 245.6923 13.84437703 42544", "name": "PRAETORIAN SDA_615", "type": "military", "velocity": 0}, {"alt": 0, "country": "US", "id": "65579", "inclination": 0, "line1": "1 65579U 25203Q   26195.90348922  .00000085  00000+0  66248-4 0  9996", "line2": "2 65579  81.3081 345.4554 0006673 122.5814 237.5987 13.83269103 42519", "name": "PRAETORIAN SDA_616", "type": "military", "velocity": 0}, {"alt": 0, "country": "US", "id": "65580", "inclination": 0, "line1": "1 65580U 25203R   26195.92745833  .00000031  00000+0  17189-4 0  9993", "line2": "2 65580  81.3050 345.2617 0008473 114.3061 245.8981 13.83152114 42528", "name": "PRAETORIAN SDA_617", "type": "military", "velocity": 0}, {"alt": 0, "country": "US", "id": "65581", "inclination": 0, "line1": "1 65581U 25203S   26195.94843116  .00000250  00000+0  21312-3 0  9994", "line2": "2 65581  81.3035 344.7647 0011095 117.7443 242.4840 13.84223993 42559", "name": "PRAETORIAN SDA_618", "type": "military", "velocity": 0}, {"alt": 0, "country": "US", "id": "65582", "inclination": 0, "line1": "1 65582U 25203T   26195.92346271  .00000140  00000+0  11527-3 0  9998", "line2": "2 65582  81.3058 345.1172 0009404 114.7898 245.4238 13.83804482 43164", "name": "PRAETORIAN SDA_619", "type": "military", "velocity": 0}, {"alt": 0, "country": "US", "id": "65583", "inclination": 0, "line1": "1 65583U 25203U   26195.88610912  .00000074  00000+0  56578-4 0  9992", "line2": "2 65583  81.3049 345.1842 0008793 112.7607 247.4479 13.83205898 42529", "name": "PRAETORIAN SDA_620", "type": "military", "velocity": 0}, {"alt": 0, "country": "US", "id": "65584", "inclination": 0, "line1": "1 65584U 25203V   26195.92529957  .00000013  00000+0  12933-5 0  9997", "line2": "2 65584  81.3033 345.0478 0008485 109.4970 250.7103 13.83803701 42530", "name": "PRAETORIAN SDA_621", "type": "military", "velocity": 0}, {"alt": 0, "country": "US", "id": "65585", "inclination": 0, "line1": "1 65585U 25203W   26195.90862805 -.00000076  00000+0 -80054-4 0  9997", "line2": "2 65585  81.3055 345.3911 0006609 125.3788 234.7987 13.83170179 42516", "name": "PRAETORIAN SDA_601", "type": "military", "velocity": 0}, {"alt": 0, "country": "EU", "id": "31598", "inclination": 0, "line1": "1 31598U 07023A   26195.93804906  .00001398  00000+0  12598-3 0  9998", "line2": "2 31598  97.8845  28.0286 0001402 103.5054 256.6324 14.97218584 33946", "name": "COSMO-SKYMED 1", "type": "sar", "velocity": 0}, {"alt": 0, "country": "EU", "id": "31698", "inclination": 0, "line1": "1 31698U 07026A   26188.47915537  .00000240  00000+0  14624-4 0  9994", "line2": "2 31698  97.4461 195.8972 0001878  86.9540 273.1909 15.19153986 56300", "name": "TERRASAR-X", "type": "sar", "velocity": 0}, {"alt": 0, "country": "US", "id": "32060", "inclination": 0, "line1": "1 32060U 07041A   26195.92689359  .00003247  00000+0  13475-3 0  9995", "line2": "2 32060  97.3905 315.2811 0001499 207.4916 152.6243 15.24556733 47105", "name": "WORLDVIEW-1 (WV-1)", "type": "optical", "velocity": 0}, {"alt": 0, "country": "CN", "id": "32289", "inclination": 0, "line1": "1 32289U 07055A   26195.98129656  .00001642  00000+0  17228-3 0  9995", "line2": "2 32289  97.8147 225.5842 0001666  79.7868 280.3538 14.90884160 10016", "name": "YAOGAN-3", "type": "sar", "velocity": 0}, {"alt": 0, "country": "EU", "id": "32376", "inclination": 0, "line1": "1 32376U 07059A   26195.97538270  .00000164  00000+0  27187-4 0  9995", "line2": "2 32376  97.8894  19.1712 0001442  94.0628 266.0750 14.82150393  6120", "name": "COSMO-SKYMED 2", "type": "sar", "velocity": 0}, {"alt": 0, "country": "IN", "id": "32783", "inclination": 0, "line1": "1 32783U 08021A   26195.91530946  .00000482  00000+0  71459-4 0  9997", "line2": "2 32783  97.7623 243.6755 0012565  28.0658 332.1229 14.79277246982908", "name": "CARTOSAT-2A", "type": "optical", "velocity": 0}, {"alt": 0, "country": "EU", "id": "33412", "inclination": 0, "line1": "1 33412U 08054A   26195.96350297  .00002348  00000+0  16033-3 0  9996", "line2": "2 33412  97.8247  54.9940 0015759 167.3382 192.8244 15.07113003961120", "name": "COSMO-SKYMED 3", "type": "sar", "velocity": 0}, {"alt": 0, "country": "CN", "id": "33446", "inclination": 0, "line1": "1 33446U 08061A   26195.82637064  .00000448  00000+0  61398-4 0  9990", "line2": "2 33446  97.9304 129.1335 0013839 346.8701  13.2151 14.83250900949761", "name": "YAOGAN-4", "type": "sar", "velocity": 0}, {"alt": 0, "country": "US", "id": "35946", "inclination": 0, "line1": "1 35946U 09055A   26195.92856266  .00000037  00000+0  26697-4 0  9996", "line2": "2 35946  98.4757 269.0005 0005305 130.4608 229.7042 14.37906848879635", "name": "WORLDVIEW-2 (WV-2)", "type": "optical", "velocity": 0}, {"alt": 0, "country": "CN", "id": "36110", "inclination": 0, "line1": "1 36110U 09069A   26195.64219642  .00000212  00000+0  36592-4 0  9995", "line2": "2 36110  98.0034  81.3353 0023549 313.2260  46.6983 14.78035216893687", "name": "YAOGAN-7", "type": "sar", "velocity": 0}, {"alt": 0, "country": "IN", "id": "36795", "inclination": 0, "line1": "1 36795U 10035A   26195.94942220 -.00000115  00000+0 -85693-5 0  9998", "line2": "2 36795  97.9944 246.3189 0012577  99.9063 260.3568 14.78615366863953", "name": "CARTOSAT-2B", "type": "optical", "velocity": 0}, {"alt": 0, "country": "CN", "id": "36834", "inclination": 0, "line1": "1 36834U 10038A   26195.97490644  .00001320  00000+0  15944-3 0  9993", "line2": "2 36834  97.8969 219.1573 0001648  84.7241   1.4023 14.85429965861331", "name": "YAOGAN-10", "type": "sar", "velocity": 0}, {"alt": 0, "country": "EU", "id": "37216", "inclination": 0, "line1": "1 37216U 10060A   26195.98804649  .00000219  00000+0  34042-4 0  9995", "line2": "2 37216  97.8885  19.1856 0001469  85.9027 274.2354 14.82148314848684", "name": "COSMO-SKYMED 4", "type": "sar", "velocity": 0}, {"alt": 0, "country": "TR", "id": "37791", "inclination": 0, "line1": "1 37791U 11044D   26195.92103076  .00000427  00000+0  82439-4 0  9990", "line2": "2 37791  98.0586 286.8950 0021911 103.4927 347.2414 14.68193205797257", "name": "RASAT", "type": "military", "velocity": 0}, {"alt": 0, "country": "EU", "id": "38012", "inclination": 0, "line1": "1 38012U 11076F   26195.98136389 -.00000121  00000+0 -16249-4 0  9990", "line2": "2 38012  98.1976 270.7094 0001692  79.8940 358.8427 14.58545777776044", "name": "PLEIADES 1A", "type": "optical", "velocity": 0}, {"alt": 0, "country": "CN", "id": "38038", "inclination": 0, "line1": "1 38038U 11079A   26195.97633806 -.00000035  00000+0  25782-5 0  9992", "line2": "2 38038  98.4067 262.7024 0005576 215.5639 222.1554 14.38234592763205", "name": "ZIYUAN 1-02C (ZY 1-02C)", "type": "optical", "velocity": 0}, {"alt": 0, "country": "EU", "id": "39019", "inclination": 0, "line1": "1 39019U 12068A   26196.00035141  .00000076  00000+0  26127-4 0  9991", "line2": "2 39019  98.1948 270.6675 0001586  78.4689 281.6689 14.58533997724904", "name": "PLEIADES 1B", "type": "optical", "velocity": 0}, {"alt": 0, "country": "TR", "id": "39030", "inclination": 0, "line1": "1 39030U 12073A   26195.95169127  .00000214  00000+0  38263-4 0  9993", "line2": "2 39030  97.6806  31.9906 0000910  91.4324 268.6990 14.75568257728607", "name": "GOKTURK 2", "type": "military", "velocity": 0}, {"alt": 0, "country": "CN", "id": "39150", "inclination": 0, "line1": "1 39150U 13018A   26195.98331631  .00000400  00000+0  64605-4 0  9996", "line2": "2 39150  97.9093 267.4844 0017021 171.7452 188.4042 14.76519155712348", "name": "GAOFEN-1", "type": "optical", "velocity": 0}, {"alt": 0, "country": "US", "id": "39418", "inclination": 0, "line1": "1 39418U 13066C   26195.70286264  .00001499  00000+0  87889-4 0  9995", "line2": "2 39418  97.3805 244.2233 0020428 215.2289 144.7594 15.13113646692646", "name": "SKYSAT-A", "type": "optical", "velocity": 0}, {"alt": 0, "country": "EU", "id": "39634", "inclination": 0, "line1": "1 39634U 14016A   26195.93318804  .00000345  00000+0  82785-4 0  9991", "line2": "2 39634  98.1768 203.0608 0001435  86.9078 273.2286 14.59196101654064", "name": "SENTINEL-1A", "type": "military", "velocity": 0}, {"alt": 0, "country": "US", "id": "40072", "inclination": 0, "line1": "1 40072U 14037D   26195.89618555  .00000603  00000+0  72253-4 0  9999", "line2": "2 40072  98.3853 156.4444 0005536 173.5386 186.5901 14.88091619650087", "name": "SKYSAT-B", "type": "optical", "velocity": 0}, {"alt": 0, "country": "US", "id": "40115", "inclination": 0, "line1": "1 40115U 14048A   26195.92764886  .00000407  00000+0  53946-4 0  9992", "line2": "2 40115  97.8557 270.3766 0001280 156.6966 203.4307 14.85063994646021", "name": "WORLDVIEW-3 (WV-3)", "type": "optical", "velocity": 0}, {"alt": 0, "country": "CN", "id": "40118", "inclination": 0, "line1": "1 40118U 14049A   26195.94638713  .00000690  00000+0  96163-4 0  9999", "line2": "2 40118  98.0104 260.1253 0008233 135.1225 225.0655 14.80928484643345", "name": "GAOFEN-2", "type": "optical", "velocity": 0}, {"alt": 0, "country": "CN", "id": "40143", "inclination": 0, "line1": "1 40143U 14053A   26195.95512789  .00003993  00000+0  15434-3 0  9997", "line2": "2 40143  97.1463 235.0029 0007878   9.4100 350.7286 15.26758366659199", "name": "YAOGAN-21", "type": "sar", "velocity": 0}, {"alt": 0, "country": "CN", "id": "40275", "inclination": 0, "line1": "1 40275U 14063A   26195.94431677 -.00000068  00000+0 -55335-4 0  9996", "line2": "2 40275 100.7762 347.6828 0006865 125.6950 234.4801 13.15531540563468", "name": "YAOGAN-22", "type": "sar", "velocity": 0}, {"alt": 0, "country": "CN", "id": "40310", "inclination": 0, "line1": "1 40310U 14072A   26195.94176328  .00000329  00000+0  55221-4 0  9997", "line2": "2 40310  98.1518 333.5159 0014577 170.4368 189.7122 14.76117994627817", "name": "YAOGAN-24", "type": "sar", "velocity": 0}, {"alt": 0, "country": "CN", "id": "40362", "inclination": 0, "line1": "1 40362U 14088A   26195.99590642  .00014706  00000+0  27863-3 0  9999", "line2": "2 40362  97.0643 195.5749 0001943 341.4860  18.6320 15.48441246642000", "name": "YAOGAN-26", "type": "sar", "velocity": 0}, {"alt": 0, "country": "KR", "id": "40536", "inclination": 0, "line1": "1 40536U 15014A   26195.98243912  .00019818  00000+0  27244-3 0  9998", "line2": "2 40536  97.6886 189.4077 0056295  76.4001 284.3514 15.55417814626131", "name": "KOMPSAT-3A", "type": "optical", "velocity": 0}, {"alt": 0, "country": "EU", "id": "40697", "inclination": 0, "line1": "1 40697U 15028A   26195.97693498 -.00000162  00000+0 -45264-4 0  9995", "line2": "2 40697  98.5684 270.4327 0001279  94.3772 265.7557 14.30813440577705", "name": "SENTINEL-2A", "type": "military", "velocity": 0}, {"alt": 0, "country": "CN", "id": "40701", "inclination": 0, "line1": "1 40701U 15030A   26195.97602337  .00015751  00000+0  31375-3 0  9991", "line2": "2 40701  97.6886  31.0335 0009993  96.0593 264.1795 15.46944106615742", "name": "GAOFEN-8", "type": "optical", "velocity": 0}, {"alt": 0, "country": "CN", "id": "40878", "inclination": 0, "line1": "1 40878U 15040A   26196.00420948  .00000308  00000+0  92266-3 0  9996", "line2": "2 40878 100.1163 181.1813 0008566 145.5253 214.6417 13.16073191521324", "name": "YAOGAN-27", "type": "sar", "velocity": 0}, {"alt": 0, "country": "CN", "id": "40894", "inclination": 0, "line1": "1 40894U 15047A   26195.99783309  .00000513  00000+0  69047-4 0  9991", "line2": "2 40894  97.6265 230.4278 0028478  51.1105 309.2643 14.82934973584318", "name": "GAOFEN-9 01", "type": "optical", "velocity": 0}, {"alt": 0, "country": "CN", "id": "41026", "inclination": 0, "line1": "1 41026U 15064A   26195.96569155  .00004022  00000+0  15074-3 0  9995", "line2": "2 41026  97.3109 333.6723 0012070  93.8019 266.4601 15.27758556594926", "name": "YAOGAN-28", "type": "sar", "velocity": 0}, {"alt": 0, "country": "CN", "id": "41038", "inclination": 0, "line1": "1 41038U 15069A   26195.97445314  .00000413  00000+0  57309-4 0  9992", "line2": "2 41038  98.0020 224.6494 0000699  14.3670 345.7563 14.83106707574740", "name": "YAOGAN-29", "type": "sar", "velocity": 0}, {"alt": 0, "country": "CN", "id": "41194", "inclination": 0, "line1": "1 41194U 15083A   26194.68502446 -.00000340  00000+0  00000+0 0  9999", "line2": "2 41194   0.4223  83.7871 0003940 124.9375  75.1281  1.00274923 38792", "name": "GAOFEN-4", "type": "optical", "velocity": 0}, {"alt": 0, "country": "EU", "id": "41335", "inclination": 0, "line1": "1 41335U 16011A   26195.91785759  .00000042  00000+0  35579-4 0  9997", "line2": "2 41335  98.6238 262.9014 0001363  89.9821 270.1516 14.26739702542013", "name": "SENTINEL-3A", "type": "military", "velocity": 0}, {"alt": 0, "country": "CN", "id": "41556", "inclination": 0, "line1": "1 41556U 16033A   26195.94653553  .00002995  00000+0  13615-3 0  9990", "line2": "2 41556  97.3830 271.1870 0014048 185.7449 174.3628 15.21432863562205", "name": "ZIYUAN 3-02 (ZY 3-02)", "type": "optical", "velocity": 0}, {"alt": 0, "country": "IN", "id": "41599", "inclination": 0, "line1": "1 41599U 16040A   26195.98704759  .00001894  00000+0  92982-4 0  9996", "line2": "2 41599  97.4470 255.5800 0009594  45.5756 314.6263 15.19261153557933", "name": "CARTOSAT-2C", "type": "optical", "velocity": 0}, {"alt": 0, "country": "US", "id": "41601", "inclination": 0, "line1": "1 41601U 16040C   26195.63369731  .00005168  00000+0  14606-3 0  9993", "line2": "2 41601  96.9549 225.8712 0000317 324.3548  35.7676 15.36741961562081", "name": "SKYSAT-C1", "type": "optical", "velocity": 0}, {"alt": 0, "country": "CN", "id": "41727", "inclination": 0, "line1": "1 41727U 16049A   26195.97391029 -.00000188  00000+0 -43785-4 0  9993", "line2": "2 41727  98.4011 203.3404 0001764  85.5019 274.6373 14.42218154522652", "name": "GAOFEN-3", "type": "optical", "velocity": 0}, {"alt": 0, "country": "US", "id": "41771", "inclination": 0, "line1": "1 41771U 16058B   26195.59325766  .00010646  00000+0  19537-3 0  9990", "line2": "2 41771  96.9161 216.2317 0003440 118.7398 241.4200 15.49423800549719", "name": "SKYSAT-C4", "type": "optical", "velocity": 0}, {"alt": 0, "country": "US", "id": "41772", "inclination": 0, "line1": "1 41772U 16058C   26195.68933508  .00004205  00000+0  13127-3 0  9993", "line2": "2 41772  97.0455 235.0967 0002493 161.8112 198.3222 15.33714814547968", "name": "SKYSAT-C5", "type": "optical", "velocity": 0}, {"alt": 0, "country": "US", "id": "41773", "inclination": 0, "line1": "1 41773U 16058D   26195.96196732  .00007086  00000+0  16442-3 0  9998", "line2": "2 41773  97.0155 217.0212 0001539 355.1441   4.9792 15.42676894549334", "name": "SKYSAT-C2", "type": "optical", "velocity": 0}, {"alt": 0, "country": "US", "id": "41774", "inclination": 0, "line1": "1 41774U 16058E   26195.65458624  .00014766  00000+0  23229-3 0  9990", "line2": "2 41774  96.8992 225.4634 0002490 132.7023 227.4442 15.53690773550378", "name": "SKYSAT-C3", "type": "optical", "velocity": 0}, {"alt": 0, "country": "TR", "id": "41875", "inclination": 0, "line1": "1 41875U 16073A   26195.88076898  .00000196  00000+0  47632-4 0  9990", "line2": "2 41875  98.1223  90.1176 0001419  80.1813 279.9549 14.62792958512873", "name": "GOKTURK 1A", "type": "military", "velocity": 0}, {"alt": 0, "country": "IN", "id": "41948", "inclination": 0, "line1": "1 41948U 17008A   26195.95294834  .00001332  00000+0  66333-4 0  9992", "line2": "2 41948  97.4100 254.7373 0006000 139.0958 221.0727 15.19282225521793", "name": "CARTOSAT-2D", "type": "optical", "velocity": 0}, {"alt": 0, "country": "EU", "id": "42063", "inclination": 0, "line1": "1 42063U 17013A   26195.96974583 -.00000020  00000+0  90914-5 0  9991", "line2": "2 42063  98.5692 270.3507 0001214  90.7203 269.4119 14.30814635488613", "name": "SENTINEL-2B", "type": "military", "velocity": 0}, {"alt": 0, "country": "IN", "id": "42767", "inclination": 0, "line1": "1 42767U 17036C   26195.97071193  .00001487  00000+0  73786-4 0  9997", "line2": "2 42767  97.4266 255.3127 0003206 190.0560 170.0611 15.19251487502364", "name": "CARTOSAT-2E", "type": "optical", "velocity": 0}, {"alt": 0, "country": "EU", "id": "42969", "inclination": 0, "line1": "1 42969U 17064A   26195.83234929 -.00000002  00000+0  20025-4 0  9996", "line2": "2 42969  98.7929 137.7679 0001129  93.1727 266.9578 14.19523253453480", "name": "SENTINEL-5P", "type": "military", "velocity": 0}, {"alt": 0, "country": "US", "id": "42987", "inclination": 0, "line1": "1 42987U 17068A   26195.92089592  .00017756  00000+0  22688-3 0  9993", "line2": "2 42987  97.4376 345.9931 0001164 159.2858 200.8445 15.59313204487568", "name": "SKYSAT-C11", "type": "optical", "velocity": 0}, {"alt": 0, "country": "US", "id": "42988", "inclination": 0, "line1": "1 42988U 17068B   26195.86940480  .00006119  00000+0  18199-3 0  9992", "line2": "2 42988  97.4538 332.9997 0001427 107.6386 252.5013 15.35112497486606", "name": "SKYSAT-C10", "type": "optical", "velocity": 0}, {"alt": 0, "country": "US", "id": "42989", "inclination": 0, "line1": "1 42989U 17068C   26195.88519892  .00007445  00000+0  17532-3 0  9997", "line2": "2 42989  97.4457 334.2191 0008692  45.8055 314.3904 15.42209004487027", "name": "SKYSAT-C9", "type": "optical", "velocity": 0}, {"alt": 0, "country": "US", "id": "42990", "inclination": 0, "line1": "1 42990U 17068D   26195.34261580  .00006159  00000+0  16986-3 0  9991", "line2": "2 42990  97.4553 332.3717 0001229 102.6122 257.5260 15.37480933486483", "name": "SKYSAT-C8", "type": "optical", "velocity": 0}, {"alt": 0, "country": "US", "id": "42991", "inclination": 0, "line1": "1 42991U 17068E   26195.92284226  .00005868  00000+0  16211-3 0  9995", "line2": "2 42991  97.4566 333.9519 0005758  22.1951 337.9541 15.37438463486635", "name": "SKYSAT-C7", "type": "optical", "velocity": 0}, {"alt": 0, "country": "US", "id": "42992", "inclination": 0, "line1": "1 42992U 17068F   26195.34510753  .00005312  00000+0  16309-3 0  9991", "line2": "2 42992  97.4602 333.2232 0005141  91.5369 268.6463 15.34160841486486", "name": "SKYSAT-C6", "type": "optical", "velocity": 0}, {"alt": 0, "country": "IN", "id": "43111", "inclination": 0, "line1": "1 43111U 18004A   26195.93739944  .00000968  00000+0  49171-4 0  9992", "line2": "2 43111  97.4781 255.2988 0002779 135.1979 224.9480 15.19266891471545", "name": "CARTOSAT-2F", "type": "optical", "velocity": 0}, {"alt": 0, "country": "CN", "id": "43259", "inclination": 0, "line1": "1 43259U 18031A   26195.94903547  .00000635  00000+0  98580-4 0  9997", "line2": "2 43259  98.0521 258.3962 0001509 289.0035  71.1011 14.76472630446798", "name": "GAOFEN-1 02", "type": "optical", "velocity": 0}, {"alt": 0, "country": "CN", "id": "43260", "inclination": 0, "line1": "1 43260U 18031B   26195.99490287  .00000347  00000+0  57342-4 0  9997", "line2": "2 43260  98.0503 258.2975 0002427  16.2755 343.8532 14.76462386446796", "name": "GAOFEN-1 03", "type": "optical", "velocity": 0}, {"alt": 0, "country": "CN", "id": "43262", "inclination": 0, "line1": "1 43262U 18031D   26195.97060708 -.00000012  00000+0  56920-5 0  9990", "line2": "2 43262  98.0521 258.4675 0001324  55.7017 304.4318 14.76469909446783", "name": "GAOFEN-1 04", "type": "optical", "velocity": 0}, {"alt": 0, "country": "EU", "id": "43437", "inclination": 0, "line1": "1 43437U 18039A   26195.82086807  .00000033  00000+0  31777-4 0  9998", "line2": "2 43437  98.6236 262.9549 0001135 119.3796 240.7498 14.26736193428066", "name": "SENTINEL-3B", "type": "military", "velocity": 0}, {"alt": 0, "country": "CN", "id": "43461", "inclination": 0, "line1": "1 43461U 18043A   26195.87462911  .00000123  00000+0  35459-4 0  9990", "line2": "2 43461  98.4589 168.0454 0002106  32.8229 327.3102 14.60623120435731", "name": "GAOFEN-5 01", "type": "optical", "velocity": 0}, {"alt": 0, "country": "CN", "id": "43484", "inclination": 0, "line1": "1 43484U 18048A   26195.99314723  .00000066  00000+0  17098-4 0  9995", "line2": "2 43484  98.0965 258.6942 0012131  82.2074 278.0512 14.76382178437498", "name": "GAOFEN-6", "type": "optical", "velocity": 0}, {"alt": 0, "country": "CN", "id": "43585", "inclination": 0, "line1": "1 43585U 18063A   26195.96085574  .00006205  00000+0  90463-4 0  9998", "line2": "2 43585  97.1282 262.7734 0003069 200.1028 160.0107 15.56059123444664", "name": "GAOFEN-11 01", "type": "optical", "velocity": 0}, {"alt": 0, "country": "CN", "id": "44622", "inclination": 0, "line1": "1 44622U 19066A   26195.95144346  .00000528  00000+0  71586-4 0  9994", "line2": "2 44622  98.0508 149.7346 0006887  53.7594 306.4255 14.83056919366495", "name": "GAOFEN-10R", "type": "optical", "velocity": 0}, {"alt": 0, "country": "IN", "id": "44804", "inclination": 0, "line1": "1 44804U 19081A   26195.95162007  .00001757  00000+0  86599-4 0  9992", "line2": "2 44804  97.4298 257.3696 0013084  59.9242 300.3288 15.19183501367684", "name": "CARTOSAT-3", "type": "optical", "velocity": 0}, {"alt": 0, "country": "CN", "id": "44819", "inclination": 0, "line1": "1 44819U 19082A   26195.99331414  .00000161  00000+0  27670-4 0  9996", "line2": "2 44819  97.8109 201.6398 0000978  54.1045 306.0258 14.80479452358200", "name": "GAOFEN-12 01", "type": "optical", "velocity": 0}, {"alt": 0, "country": "EU", "id": "46984", "inclination": 0, "line1": "1 46984U 20086A   26195.88051602 -.00000042  00000+0  83335-4 0  9992", "line2": "2 46984  66.0412  77.5341 0007788 269.7823  90.2299 12.80930157263879", "name": "SENTINEL-6A", "type": "military", "velocity": 0}, {"alt": 0, "country": "CN", "id": "48079", "inclination": 0, "line1": "1 48079U 21026A   26195.93977373  .00000153  00000+0  27041-4 0  9996", "line2": "2 48079  97.9934 194.0086 0005824 132.9214 227.2487 14.80315963285861", "name": "GAOFEN-12 02", "type": "optical", "velocity": 0}, {"alt": 0, "country": "EU", "id": "48268", "inclination": 0, "line1": "1 48268U 21034A   26195.94145521 -.00000700  00000+0 -82384-4 0  9999", "line2": "2 48268  97.8946 270.3085 0001305  92.8825 267.2538 14.81665400281763", "name": "PLEIADES NEO 3", "type": "optical", "velocity": 0}, {"alt": 0, "country": "EU", "id": "49070", "inclination": 0, "line1": "1 49070U 21073E   26195.90768476  .00000878  00000+0  11821-3 0  9991", "line2": "2 49070  97.8945 270.2713 0001352  92.9900 267.1468 14.81673026265472", "name": "PLEIADES NEO 4", "type": "optical", "velocity": 0}, {"alt": 0, "country": "CN", "id": "52912", "inclination": 0, "line1": "1 52912U 22069A   26195.97444274  .00000342  00000+0  51865-4 0  9999", "line2": "2 52912  97.8250  83.1406 0002430  72.9516 287.1962 14.80074653218726", "name": "GAOFEN-12 03", "type": "optical", "velocity": 0}, {"alt": 0, "country": "CN", "id": "57654", "inclination": 0, "line1": "1 57654U 23123A   26195.92647852  .00000449  00000+0  66592-4 0  9992", "line2": "2 57654  97.9102 113.5299 0003533  51.0924 309.0602 14.79774981156731", "name": "GAOFEN-12 04", "type": "optical", "velocity": 0}, {"alt": 0, "country": "EU", "id": "60989", "inclination": 0, "line1": "1 60989U 24157A   26195.79493548  .00000043  00000+0  33213-4 0  9995", "line2": "2 60989  98.5685 270.1851 0000956 103.6589 256.4701 14.30815595 96934", "name": "SENTINEL-2C", "type": "military", "velocity": 0}, {"alt": 0, "country": "EU", "id": "66514", "inclination": 0, "line1": "1 66514U 25264A   26195.88086398 -.00000044  00000+0  75316-4 0  9998", "line2": "2 66514  66.0413  77.6596 0007845 268.6787  91.3330 12.80930149 30719", "name": "SENTINEL-6B", "type": "military", "velocity": 0}] |
